COSMOS 2251 DEB         
1 35721U 93036AQS 25289.26009209  .00004022  00000+0  13021-2 0  9999
2 35721  73.9489 283.5012 0145072  82.0688 279.6899 14.33482797569651
COSMOS 2251 DEB         
1 35724U 93036AQV 25291.73185904  .00002799  00000+0  60007-3 0  9990
2 35724  74.0350  47.3546 0061328 215.5272 144.1803 14.57990673867277
COSMOS 2251 DEB         
1 35759U 93036ARD 25291.80296599  .00002260  00000+0  41409-3 0  9997
2 35759  74.0382 321.6702 0075487  94.5254 266.4543 14.64578314653317
COSMOS 2251 DEB         
1 35771U 93036ARR 25291.32302146  .00010027  00000+0  43257-2 0  9996
2 35771  74.1587  47.5880 0228690   0.0859   0.0279 14.11526343820781
COSMOS 2251 DEB         
1 35773U 93036ART 25291.85240313  .00006681  00000+0  13290-2 0  9998
2 35773  74.0062  86.0485 0048482 257.4286 102.1456 14.61526388860374
COSMOS 2251 DEB         
1 35777U 93036ARX 25290.62011046  .00000530  00000+0  54738-3 0  9995
2 35777  73.7710  52.4015 0451966 315.2825  60.1728 13.41196611789326
COSMOS 2251 DEB         
1 35784U 93036ASE 25290.08889016  .00001995  00000+0  51837-3 0  9996
2 35784  74.0392 196.0617 0041681 337.5240  22.4093 14.49847414648855
COSMOS 2251 DEB         
1 35786U 93036ASG 25291.94197740  .00008445  00000+0  15565-2 0  9994
2 35786  74.0135 149.4371 0036820 287.5926  72.1221 14.65221186726059
COSMOS 2251 DEB         
1 35789U 93036ASK 25291.00622990  .00000546  00000+0  19457-3 0  9993
2 35789  74.0412  26.6654 0047176 142.1377 218.3110 14.35926654604271
COSMOS 2251 DEB         
1 35793U 93036ASP 25290.43225877  .00015238  00000+0  21821-2 0  9998
2 35793  74.0422 170.6398 0007884 247.0161 292.0331 14.76570724649653
COSMOS 2251 DEB         
1 35824U 93036ASW 25288.86044239  .00002569  00000+0  16855-2 0  9992
2 35824  73.8446 148.2573 0253581 243.9844 113.4972 13.88072065834242
COSMOS 2251 DEB         
1 35825U 93036ASX 25289.14261420  .00004933  00000+0  35709-2 0  9994
2 35825  74.1141 237.2996 0355281 345.9136  13.2263 13.70610721817197
COSMOS 2251 DEB         
1 35829U 93036ATB 25290.45895772  .00018588  00000+0  28074-2 0  9995
2 35829  74.0273 208.8976 0011525 272.1133  87.8720 14.74219096869452
COSMOS 2251 DEB         
1 35830U 93036ATC 25287.94554446  .00003619  00000+0  14862-2 0  9996
2 35830  73.8640  13.3921 0121423 352.3117   7.6161 14.23470546604279
COSMOS 2251 DEB         
1 35834U 93036ATG 25290.57622749  .00001062  00000+0  55132-3 0  9991
2 35834  73.9331  44.4785 0110857 216.1925 159.8902 14.12915625654703
COSMOS 2251 DEB         
1 35835U 93036ATH 25291.45753946  .00002407  00000+0  16156-2 0  9990
2 35835  74.0662   1.3565 0291303 156.1638 205.3300 13.82630338609352
COSMOS 2251 DEB         
1 35836U 93036ATJ 25291.70474043  .00023074  00000+0  38961-2 0  9998
2 35836  74.0309 279.6749 0027489 346.3327  13.7095 14.69100943627111
COSMOS 2251 DEB         
1 35837U 93036ATK 25287.34019580  .00008366  00000+0  57907-2 0  9993
2 35837  73.7256 306.4284 0426383 235.9791 137.6975 13.63010546571670
COSMOS 2251 DEB         
1 35839U 93036ATM 25291.39680447  .00128838  00000+0  47599-2 0  9994
2 35839  74.2127  81.3765 0008751 228.9486 158.9337 15.27090449877170
COSMOS 2251 DEB         
1 35840U 93036ATN 25288.21063609  .00005016  00000+0  15702-2 0  9991
2 35840  73.9309 266.5859 0117060 183.5022 176.5326 14.37040957844501
COSMOS 2251 DEB         
1 35883U 93036ATW 25290.42717807  .00001437  00000+0  35882-3 0  9995
2 35883  74.0244 175.9475 0084472 317.5556 220.9390 14.50392392615695
COSMOS 2251 DEB         
1 35884U 93036ATX 25284.75089621  .00005114  00000+0  20580-2 0  9995
2 35884  73.9890  88.1888 0112340 247.8534 111.0659 14.24922899214742
COSMOS 2251 DEB         
1 35885U 93036ATY 25291.02046360  .00001378  00000+0  46852-3 0  9996
2 35885  74.0300  37.3735 0022953 136.5146 223.7823 14.37375036642154
COSMOS 2251 DEB         
1 35888U 93036AUB 25291.75124476  .00003604  00000+0  77750-3 0  9999
2 35888  74.0300 101.3083 0051062 246.3421 113.2379 14.57955505854728
COSMOS 2251 DEB         
1 35890U 93036AUD 25287.91377201  .00006990  00000+0  15586-2 0  9990
2 35890  73.9388 355.0566 0053354 134.3649 226.1904 14.56144251642947
COSMOS 2251 DEB         
1 35891U 93036AUE 25289.51626432  .00046631  00000+0  16612-2 0  9999
2 35891  73.9914 216.0747 0050891 355.3957   4.6768 15.27458165663457
COSMOS 2251 DEB         
1 35895U 93036AUJ 25286.18645957  .00002865  00000+0  16050-2 0  9993
2 35895  74.0473  92.6648 0204990 204.6109 154.5139 14.01040181581640
COSMOS 2251 DEB         
1 35898U 93036AUM 25288.63422769  .00015221  00000+0  13577-2 0  9993
2 35898  73.9927  54.7898 0084012 213.8143 165.8396 14.93266107659423
COSMOS 2251 DEB         
1 35901U 93036AUQ 25291.85250959  .00070748  00000+0  56713-2 0  9990
2 35901  74.0127 135.1568 0009512 193.6474 188.0993 14.99705828853020
COSMOS 2251 DEB         
1 35902U 93036AUR 25289.82734370  .00003539  00000+0  14034-2 0  9993
2 35902  73.9852 337.8354 0100540 105.9180 255.3075 14.26430396603185
COSMOS 2251 DEB         
1 35905U 93036AUU 25291.35619177  .00008723  00000+0  68581-3 0  9991
2 35905  74.0327 323.1320 0091236  57.4968 303.4993 14.97693603877530
COSMOS 2251 DEB         
1 35959U 93036AUZ 25290.03675519  .00000594  00000+0  22103-3 0  9994
2 35959  74.0328  55.8604 0021845 155.3816 204.8384 14.34078575841156
COSMOS 2251 DEB         
1 35961U 93036AVB 25291.73512234  .00004246  00000+0  22289-2 0  9991
2 35961  73.9264 300.9087 0195149 245.6282 112.4377 14.05173585619091
COSMOS 2251 DEB         
1 35975U 93036AVR 25264.33515528  .00003424  00000+0  13567-2 0  9997
2 35975  74.0491 118.4482 0114513 218.1944 141.1052 14.25701599629271
COSMOS 2251 DEB         
1 35979U 93036AVV 25289.43891197  .00005890  00000+0  88308-3 0  9993
2 35979  74.0132 350.3881 0059060 138.2664 235.8046 14.73635398877896
COSMOS 2251 DEB         
1 35980U 93036AVW 25290.57229564  .00012908  00000+0  27424-2 0  9994
2 35980  73.9126 230.4592 0053849  13.7266 346.5347 14.58212636606679
COSMOS 2251 DEB         
1 35982U 93036AVY 25291.41478720  .00006039  00000+0  11654-2 0  9996
2 35982  74.0559  92.7932 0066596 175.4020 184.7774 14.62245853853578
COSMOS 2251 DEB         
1 35987U 93036AWD 25290.80200187  .00007215  00000+0  21473-2 0  9990
2 35987  73.9988  70.7224 0049022 209.9395 149.8956 14.42595959602580
COSMOS 2251 DEB         
1 35989U 93036AWF 25287.57283757  .00000870  00000+0  30163-3 0  9993
2 35989  74.0394  32.6225 0021350 134.1497 226.1417 14.36988103863297
COSMOS 2251 DEB         
1 35993U 93036AWK 25263.37823822  .00003266  00000+0  62101-3 0  9992
2 35993  74.0138 133.3062 0029899 338.2923  21.6975 14.64277493592226
COSMOS 2251 DEB         
1 35996U 93036AWN 25286.12346555  .00020694  00000+0  12411-2 0  9998
2 35996  74.0159 228.3637 0092712 333.4400  26.2054 15.07286786714123
COSMOS 2251 DEB         
1 35997U 93036AWP 25291.72023434  .00004257  00000+0  10842-2 0  9992
2 35997  74.0429 290.7422 0015046  11.7909 348.3601 14.50864620700862
COSMOS 2251 DEB         
1 36005U 93036AWX 25291.15484665  .00001039  00000+0  28533-3 0  9999
2 36005  74.0275 197.9935 0061382 346.9316  13.0249 14.47243281867800
COSMOS 2251 DEB         
1 36045U 93036AXG 25290.93283764  .00017632  00000+0  30245-2 0  9993
2 36045  73.7644 168.8650 0054109 198.0128 161.9125 14.67741626 75699
COSMOS 2251 DEB         
1 36046U 93036AXH 25287.57391694  .00004470  00000+0  82394-3 0  9991
2 36046  74.0184  30.4464 0057529 192.7788 184.5664 14.64754836631378
COSMOS 2251 DEB         
1 36047U 93036AXJ 25288.86351321  .00032087  00000+0  31773-2 0  9997
2 36047  74.0354  90.6839 0010093 171.3656 188.7702 14.91663240650754
COSMOS 2251 DEB         
1 36048U 93036AXK 25291.99804662  .00001298  00000+0  43834-3 0  9999
2 36048  74.0584  39.9443 0025485 107.2638  14.7523 14.37726094847154
COSMOS 2251 DEB         
1 36049U 93036AXL 25291.54728335  .00009740  00000+0  19776-2 0  9990
2 36049  74.0315 224.8057 0012733 309.4682  50.5357 14.61206075845587
COSMOS 2251 DEB         
1 36050U 93036AXM 25290.75648760  .00010370  00000+0  77622-3 0  9993
2 36050  74.0320 307.9113 0089741  41.6212 319.1758 14.99591898661955
COSMOS 2251 DEB         
1 36052U 93036AXP 25291.44014130  .00418677  00000+0  10601-1 0  9994
2 36052  73.9910  99.6874 0005920 144.3847 215.7756 15.37964832857389
COSMOS 2251 DEB         
1 36053U 93036AXQ 25291.63767384  .00012758  00000+0  28685-2 0  9994
2 36053  73.8710 258.3160 0035260 222.4495 137.3940 14.56128535866427
COSMOS 2251 DEB         
1 36058U 93036AXV 25290.85724678  .00003436  00000+0  73996-3 0  9990
2 36058  74.0219 139.9212 0046834 284.9226  74.6755 14.58189093652962
COSMOS 2251 DEB         
1 36060U 93036AXX 25289.54168698  .00001279  00000+0  39905-3 0  9996
2 36060  74.0305 340.6250 0013491  94.8126 265.4570 14.41802058841852
COSMOS 2251 DEB         
1 36061U 93036AXY 25291.75899078  .00001381  00000+0  50409-3 0  9992
2 36061  74.0218 100.3821 0039010 202.8621 157.0796 14.33557930643164
COSMOS 2251 DEB         
1 36073U 93036AYL 25290.04569488  .00001137  00000+0  40832-3 0  9993
2 36073  74.0319  66.4755 0024241 153.2011 207.0399 14.34845518693948
COSMOS 2251 DEB         
1 36074U 93036AYM 25290.14768028  .00007307  00000+0  21556-2 0  9992
2 36074  73.9916  85.9257 0044882 192.5006 167.5041 14.43133962850937
COSMOS 2251 DEB         
1 36366U 93036AYT 25285.55511325  .00005166  00000+0  18279-2 0  9990
2 36366  74.0683  24.6455 0089973  68.5480 292.5237 14.32557787854126
COSMOS 2251 DEB         
1 36367U 93036AYU 25291.35137981  .00001619  00000+0  10931-2 0  9994
2 36367  74.0990 324.8193 0260207  50.5081 311.8743 13.86034908567627
